COSMOS 2419 (714)       
1 28915U 05050A   17148.76142009 -.00000033  00000-0  00000-0 0  9992
2 28915  65.4868  66.5068 0017430 352.5333 305.8838  2.13107041 88914
COSMOS 2425 (716)       
1 29670U 06062A   17148.75140977 -.00000023  00000-0  10000-3 0  9999
2 29670  65.4723 305.5169 0020607 350.8536 352.1752  2.13104766 81113
COSMOS 2426 (717)       
1 29671U 06062B   17148.57647238 -.00000024  00000-0  10000-3 0  9993
2 29671  65.4896 305.6118 0017911 158.3031 268.9945  2.13102961 81129
COSMOS 2424 (715)       
1 29672U 06062C   17148.67492373 -.00000024  00000-0  10000-3 0  9993
2 29672  65.4736 305.5307 0017395 157.0912 161.0788  2.13102300 81116
COSMOS 2433 (720)       
1 32275U 07052A   17148.65426882 -.00000032  00000-0  10000-3 0  9995
2 32275  65.5032  66.2884 0003520 299.2067 161.4198  2.13104693 74630
COSMOS 2432 (719)       
1 32276U 07052B   17148.35948712 -.00000032  00000-0  10000-3 0  9994
2 32276  65.5148  66.3685 0013421 336.8407 210.5646  2.13104209 74622
COSMOS 2434 (721)       
1 32393U 07065A   17148.73098979 -.00000024  00000-0  00000-0 0  9998
2 32393  65.0888 304.6759 0005964 103.9221 305.2489  2.13102955 73349
COSMOS 2436 (723)       
1 32395U 07065C   17148.61114527 -.00000024  00000-0  10000-3 0  9999
2 32395  65.0982 304.7256 0015131   8.0562 357.7640  2.13104350 73273
COSMOS 2443 (725)       
1 33379U 08046B   17148.79152638 -.00000034  00000-0  00000-0 0  9993
2 33379  65.4313  65.6682 0011328 181.9678 284.8076  2.13099370 67492
COSMOS 2456 (730)       
1 36111U 09070A   17148.59615747  .00000052  00000-0  00000-0 0  9990
2 36111  64.1786 184.2469 0006059 300.5690 176.1899  2.13102977 58009
COSMOS 2457 (733)       
1 36112U 09070B   17148.74446670  .00000050  00000-0  00000-0 0  9993
2 36112  64.1610 184.1607 0006320 188.0303 171.1532  2.13101630 58004
COSMOS 2458 (734)       
1 36113U 09070C   17148.75739623  .00000050  00000-0  10000-3 0  9992
2 36113  64.1665 184.1688 0002405 305.3946 111.6800  2.13102130 58015
COSMOS 2459 (731)       
1 36400U 10007A   17148.62665876 -.00000034  00000-0  10000-3 0  9990
2 36400  65.4119  65.3961 0029474 352.0310 309.6600  2.13102385 56359
COSMOS 2461 (735)       
1 36401U 10007B   17148.57214597 -.00000033  00000-0  10000-3 0  9994
2 36401  65.4045  65.3772 0007139  51.7281 118.7414  2.13102434 56359
COSMOS 2460 (732)       
1 36402U 10007C   17148.69461675 -.00000034  00000-0  10000-3 0  9990
2 36402  65.3945  65.3447 0002195 347.7624 317.9810  2.13101843 56359
COSMOS 2465 (737)       
1 37138U 10041B   17148.74744046 -.00000025  00000-0  00000-0 0  9993
2 37138  64.6868 304.6727 0035497 168.9711 297.5637  2.13104263 52437
COSMOS 2464 (736)       
1 37139U 10041C   17148.45058164 -.00000025  00000-0  00000-0 0  9991
2 37139  64.6935 304.6823 0023638  17.3881  44.4030  2.13102651 52423
COSMOS 2471 (701K)      
1 37372U 11009A   17148.22992078 -.00000033  00000-0  00000-0 0  9990
2 37372  65.3926  65.3088 0007570 244.4071 200.5591  2.13107680 48626
COSMOS 2474 (742)       
1 37829U 11055A   17148.54765147  .00000052  00000-0  00000-0 0  9998
2 37829  64.5032 184.8048 0010344 253.1051  46.3229  2.13102000 43993
COSMOS 2476 (744)       
1 37867U 11064A   17148.67060428  .00000051  00000-0  00000-0 0  9993
2 37867  64.4824 184.8761 0019816 246.9544 192.7336  2.13101955 43358
COSMOS 2477 (745)       
1 37868U 11064B   17148.62812958  .00000051  00000-0  00000-0 0  9992
2 37868  64.4917 184.9186 0017445 247.9738 338.2565  2.13101874 43302
COSMOS 2475 (743)       
1 37869U 11064C   17148.57352747  .00000052  00000-0  00000-0 0  9993
2 37869  64.4988 184.9115 0022403 271.3430 229.3779  2.13102021 43316
COSMOS 2485 (747)       
1 39155U 13019A   17148.62685809  .00000052  00000-0  00000-0 0  9999
2 39155  64.6525 184.8990 0019806 241.5947 209.5572  2.13102047 31822
COSMOS 2492 (754)       
1 39620U 14012A   17148.66929527 -.00000034  00000-0  10000-3 0  9997
2 39620  65.2846  65.2861 0016860 333.0932 184.7354  2.13103479 24777
COSMOS 2500 (755)       
1 40001U 14032A   17148.74434475 -.00000034  00000-0  00000-0 0  9992
2 40001  65.2252  65.2816 0004658 224.1229 214.3574  2.13102980 22996
COSMOS 2501 (702K)      
1 40315U 14075A   17148.51619329 -.00000027  00000-0  00000-0 0  9997
2 40315  64.4208 306.0286 0014329 204.1052 225.6518  2.13098622 19391
COSMOS 2514 (751)       
1 41330U 16008A   17148.55664144 -.00000034  00000-0  00000-0 0  9990
2 41330  65.0258  65.4369 0008095 227.7607 246.6605  2.13103494 10158
COSMOS 2516 (753)       
1 41554U 16032A   17148.52673936 -.00000026  00000-0  00000-0 0  9992
2 41554  64.6409 305.7874 0010324 213.5299 130.6513  2.13101631  7751
